[{"OBJECT_NAME":"YAOGAN-31 03C","OBJECT_ID":"2021-014E","EPOCH":"2026-03-10T00:23:44.728224","MEAN_MOTION":13.45441798,"ECCENTRICITY":0.01685112,"INCLINATION":63.4015,"RA_OF_ASC_NODE":92.564,"ARG_OF_PERICENTER":0.4997,"MEAN_ANOMALY":359.6168,"EPHEMERIS_TYPE":0,"CLASSIFICATION_TYPE":"U","NORAD_CAT_ID":47695,"ELEMENT_SET_NO":999,"REV_AT_EPOCH":24738,"BSTAR":0.00041950117,"MEAN_MOTION_DOT":1.81e-6,"MEAN_MOTION_DDOT":0},{"OBJECT_NAME":"THORAD AGENA D R\/B","OBJECT_ID":"1969-037C","EPOCH":"2026-03-09T18:53:53.657376","MEAN_MOTION":13.42143278,"ECCENTRICITY":0.00386182,"INCLINATION":99.9081,"RA_OF_ASC_NODE":339.5705,"ARG_OF_PERICENTER":308.5906,"MEAN_ANOMALY":119.3832,"EPHEMERIS_TYPE":0,"CLASSIFICATION_TYPE":"U","NORAD_CAT_ID":3892,"ELEMENT_SET_NO":999,"REV_AT_EPOCH":78610,"BSTAR":9.3941762e-5,"MEAN_MOTION_DOT":9.0e-8,"MEAN_MOTION_DDOT":0}]
